OBJECT_NAME,OBJECT_ID,EPOCH,MEAN_MOTION,ECCENTRICITY,INCLINATION,RA_OF_ASC_NODE,ARG_OF_PERICENTER,MEAN_ANOMALY,EPHEMERIS_TYPE,CLASSIFICATION_TYPE,NORAD_CAT_ID,ELEMENT_SET_NO,REV_AT_EPOCH,BSTAR,MEAN_MOTION_DOT,MEAN_MOTION_DDOT
FORMOSAT 7-1,2019-036L,2026-07-19T14:01:08.289408,14.96621201,.0000738,23.9963,173.9600,171.5482,188.5031,0,U,44349,999,38951,.855E-4,.1301E-4,0
FORMOSAT 7-4,2019-036M,2026-07-19T11:21:39.655296,14.96618027,.00009988,23.9968,236.8190,189.9684,170.0797,0,U,44350,999,38891,.77743598E-4,.1211E-4,0
FORMOSAT 7-2,2019-036N,2026-07-19T11:53:52.233216,14.96618736,.0000521,23.9982,290.9842,164.0224,196.0293,0,U,44351,999,38843,.88106E-4,.1331E-4,0
FORMOSAT 7-6,2019-036Q,2026-07-19T19:53:17.767968,14.96622992,.000134,23.9974,109.5439,117.5945,242.4692,0,U,44353,999,38671,.9488E-4,.1411E-4,0
FORMOSAT 7-5,2019-036V,2026-07-19T20:56:55.156704,14.96603328,.0000205,23.9994,48.0017,155.1148,204.9362,0,U,44358,999,38725,.10137E-3,.1485E-4,0
METEOR-M2 2,2019-038A,2026-07-19T21:49:01.114752,14.24372530,.0000414,98.9169,188.6804,353.1684,6.9488,0,U,44387,999,36595,-.11255E-3,-.306E-5,0
GLOBAL-4,2019-054E,2026-07-19T17:43:19.968384,15.67441702,.0006045,45.0057,48.1376,225.1276,134.9132,0,U,44499,999,38546,.3623E-3,.40054E-3,0
ZY-1 02D,2019-059A,2026-07-19T19:59:35.577024,14.35269028,.000301,98.6704,262.4109,279.6932,80.3913,0,U,44528,999,35902,.55873E-5,-.29E-6,0
TAURUS-1 (JINNIUZUO 1),2019-059C,2026-07-19T19:07:48.798912,14.72392891,.0008383,98.6449,7.6601,200.4734,159.6136,0,U,44530,999,36344,.33581E-3,.2072E-4,0
ZHUHAI-1 03B,2019-060C,2026-07-19T20:58:01.858368,15.55813056,.0008704,97.5566,0.4554,188.7187,171.3917,0,U,44536,999,38140,.28511E-3,.19636E-3,0
ZHUHAI-1 03D,2019-060E,2026-07-19T21:01:04.788768,15.51526442,.0007789,97.5406,352.2914,174.3773,185.7568,0,U,44538,999,38114,.32845E-3,.19371E-3,0
ZHUHAI-1 03E,2019-060F,2026-07-19T21:26:49.467840,15.42014811,.0004508,97.5653,352.0071,253.9403,106.1347,0,U,44539,999,38080,.24277E-3,.10267E-3,0
GAOFEN-7,2019-072A,2026-07-19T21:19:35.580000,15.20938510,.0017005,97.5701,261.6472,294.8321,65.1146,0,U,44703,999,37261,.86289E-4,.1844E-4,0
JILIN-1 GAOFEN 2A,2019-075A,2026-07-19T19:47:02.295168,15.40084650,.0004756,97.4954,285.3952,335.8368,24.2654,0,U,44777,999,36990,.19523E-3,.7726E-4,0
NINGXIA-1 1,2019-076A,2026-07-19T21:19:58.368864,14.02042534,.0011358,45.0069,33.7134,310.3112,49.6729,0,U,44779,999,34244,.36577E-4,-.74E-6,0
NINGXIA-1 5,2019-076E,2026-07-19T19:54:52.867584,14.02090921,.0011305,45.0065,33.3079,300.4956,59.4761,0,U,44783,999,34235,.84635E-4,0,0
KL-ALPHA A,2019-077A,2026-07-19T21:10:09.418944,13.56045928,.0011962,88.9232,218.9886,24.6126,335.5597,0,U,44785,999,33016,.147E-4,.23E-6,0
CARTOSAT-3,2019-081A,2026-07-19T19:49:03.225792,15.19202441,.0012602,97.4282,262.1639,44.3193,315.9048,0,U,44804,999,36842,.93131E-4,.1895E-4,0
JILIN-1 GAOFEN 2B,2019-086A,2026-07-19T20:18:55.598112,15.21028639,.0013676,97.4865,272.6376,198.8619,161.2111,0,U,44836,999,36545,.14142E-3,.3074E-4,0
TIANQIN 1 (CAS-6),2019-093A,2026-07-19T19:22:35.567040,14.95570788,.0009852,97.7806,284.4141,311.0111,49.0257,0,U,44879,999,35692,.48579E-4,.481E-5,0
ETRSS-1,2019-093B,2026-07-19T19:18:32.344128,14.96022898,.0009885,97.7826,284.8998,311.3587,48.6783,0,U,44880,999,35693,.88985E-4,.941E-5,0
TIANYAN 01,2019-093C,2026-07-19T19:48:35.813664,14.86565370,.0013122,97.7513,272.2597,346.2300,13.8556,0,U,44881,999,35626,.97648E-4,.813E-5,0
TIANYAN 02,2019-093D,2026-07-19T19:43:44.597280,15.05558251,.0012472,97.7931,295.9337,271.1361,88.8436,0,U,44882,999,35752,.25026E-3,.3546E-4,0
CBERS 4A,2019-093E,2026-07-19T20:21:34.555104,14.81447103,.0001717,98.0173,268.3146,127.5824,232.5544,0,U,44883,999,35591,-.15193E-4,-.172E-5,0
WEILAI 1R,2019-093F,2026-07-19T20:35:27.557376,15.00888154,.0015134,97.7887,290.8052,292.3796,67.5823,0,U,44884,999,35732,.17332E-3,.2148E-4,0
FLORIPASAT-1,2019-093G,2026-07-19T19:47:34.538784,15.04160810,.0010643,97.7906,295.3019,323.0592,36.9899,0,U,44885,999,35755,.1676E-3,.2264E-4,0
SHUNTIAN,2019-093H,2026-07-19T20:46:03.405216,14.95292745,.0010425,97.8006,288.8616,322.6212,37.4282,0,U,44886,999,35706,.16496E-3,.176E-4,0
