FORMOSAT 7-1            
1 44349U 19036L   26200.58412372  .00001301  00000+0  85500-4 0  9991
2 44349  23.9963 173.9600 0000738 171.5482 188.5031 14.96621201389514
FORMOSAT 7-4            
1 44350U 19036M   26200.47337564  .00001211  00000+0  77744-4 0  9991
2 44350  23.9968 236.8190 0000998 189.9684 170.0797 14.96618027388919
FORMOSAT 7-2            
1 44351U 19036N   26200.49574344  .00001331  00000+0  88106-4 0  9990
2 44351  23.9982 290.9842 0000521 164.0224 196.0293 14.96618736388430
FORMOSAT 7-6            
1 44353U 19036Q   26200.82867787  .00001411  00000+0  94880-4 0  9990
2 44353  23.9974 109.5439 0001340 117.5945 242.4692 14.96622992386710
FORMOSAT 7-5            
1 44358U 19036V   26200.87286061  .00001485  00000+0  10137-3 0  9993
2 44358  23.9994  48.0017 0000205 155.1148 204.9362 14.96603328387257
METEOR-M2 2             
1 44387U 19038A   26200.90904068 -.00000306  00000+0 -11255-3 0  9990
2 44387  98.9169 188.6804 0000414 353.1684   6.9488 14.24372530365958
GLOBAL-4                
1 44499U 19054E   26200.73842556  .00040054  00000+0  36230-3 0  9998
2 44499  45.0057  48.1376 0006045 225.1276 134.9132 15.67441702385468
ZY-1 02D                
1 44528U 19059A   26200.83305066 -.00000029  00000+0  55873-5 0  9992
2 44528  98.6704 262.4109 0003010 279.6932  80.3913 14.35269028359028
TAURUS-1 (JINNIUZUO 1)  
1 44530U 19059C   26200.79709258  .00002072  00000+0  33581-3 0  9990
2 44530  98.6449   7.6601 0008383 200.4734 159.6136 14.72392891363447
ZHUHAI-1 03B            
1 44536U 19060C   26200.87363262  .00019636  00000+0  28511-3 0  9999
2 44536  97.5566   0.4554 0008704 188.7187 171.3917 15.55813056381403
ZHUHAI-1 03D            
1 44538U 19060E   26200.87574987  .00019371  00000+0  32845-3 0  9990
2 44538  97.5406 352.2914 0007789 174.3773 185.7568 15.51526442381148
ZHUHAI-1 03E            
1 44539U 19060F   26200.89362810  .00010267  00000+0  24277-3 0  9998
2 44539  97.5653 352.0071 0004508 253.9403 106.1347 15.42014811380801
GAOFEN-7                
1 44703U 19072A   26200.88860625  .00001844  00000+0  86289-4 0  9993
2 44703  97.5701 261.6472 0017005 294.8321  65.1146 15.20938510372615
JILIN-1 GAOFEN 2A       
1 44777U 19075A   26200.82433212  .00007726  00000+0  19523-3 0  9990
2 44777  97.4954 285.3952 0004756 335.8368  24.2654 15.40084650369904
NINGXIA-1 1             
1 44779U 19076A   26200.88887001 -.00000074  00000+0  36577-4 0  9997
2 44779  45.0069  33.7134 0011358 310.3112  49.6729 14.02042534342446
NINGXIA-1 5             
1 44783U 19076E   26200.82977856  .00000000  00000+0  84635-4 0  9990
2 44783  45.0065  33.3079 0011305 300.4956  59.4761 14.02090921342357
KL-ALPHA A              
1 44785U 19077A   26200.88205346  .00000023  00000+0  14700-4 0  9998
2 44785  88.9232 218.9886 0011962  24.6126 335.5597 13.56045928330167
CARTOSAT-3              
1 44804U 19081A   26200.82573178  .00001895  00000+0  93131-4 0  9993
2 44804  97.4282 262.1639 0012602  44.3193 315.9048 15.19202441368420
JILIN-1 GAOFEN 2B       
1 44836U 19086A   26200.84647683  .00003074  00000+0  14142-3 0  9993
2 44836  97.4865 272.6376 0013676 198.8619 161.2111 15.21028639365457
TIANQIN 1 (CAS-6)       
1 44879U 19093A   26200.80735610  .00000481  00000+0  48579-4 0  9993
2 44879  97.7806 284.4141 0009852 311.0111  49.0257 14.95570788356923
ETRSS-1                 
1 44880U 19093B   26200.80454102  .00000941  00000+0  88985-4 0  9995
2 44880  97.7826 284.8998 0009885 311.3587  48.6783 14.96022898356932
TIANYAN 01              
1 44881U 19093C   26200.82541451  .00000813  00000+0  97648-4 0  9996
2 44881  97.7513 272.2597 0013122 346.2300  13.8556 14.86565370356265
TIANYAN 02              
1 44882U 19093D   26200.82204395  .00003546  00000+0  25026-3 0  9996
2 44882  97.7931 295.9337 0012472 271.1361  88.8436 15.05558251357525
CBERS 4A                
1 44883U 19093E   26200.84831661 -.00000172  00000+0 -15193-4 0  9990
2 44883  98.0173 268.3146 0001717 127.5824 232.5544 14.81447103355913
WEILAI 1R               
1 44884U 19093F   26200.85795784  .00002148  00000+0  17332-3 0  9996
2 44884  97.7887 290.8052 0015134 292.3796  67.5823 15.00888154357325
FLORIPASAT-1            
1 44885U 19093G   26200.82470531  .00002264  00000+0  16760-3 0  9997
2 44885  97.7906 295.3019 0010643 323.0592  36.9899 15.04160810357551
SHUNTIAN                
1 44886U 19093H   26200.86531719  .00001760  00000+0  16496-3 0  9994
2 44886  97.8006 288.8616 0010425 322.6212  37.4282 14.95292745357066
